ONEWEB-0545             
1 54647U 22166F   26014.45107999  .00000001  00000+0 -27995-4 0  9997
2 54647  87.9217 274.6531 0002115  73.9964 286.1403 13.21825835151196
ONEWEB-0580             
1 54648U 22166G   26014.65182690  .00000055  00000+0  10088-3 0  9993
2 54648  87.9219 274.6126 0001981  77.9371 282.1985 13.21828723151263
ONEWEB-0582             
1 54649U 22166H   26014.24044278  .00000015  00000+0  48798-5 0  9995
2 54649  87.9218 274.6873 0002089  73.8607 286.2756 13.21825333151185
ONEWEB-0583             
1 54650U 22166J   26014.25196179  .00000015  00000+0  40105-5 0  9990
2 54650  87.9217 274.7089 0001694  72.9705 287.1614 13.21825129151193
ONEWEB-0584             
1 54651U 22166K   26014.12032516  .00000095  00000+0  19820-3 0  9997
2 54651  87.9221 274.7224 0001971  79.5053 280.6303 13.21825960151160
ONEWEB-0585             
1 54652U 22166L   26014.44777344  .00000051  00000+0  92806-4 0  9996
2 54652  87.9219 274.6415 0001496  78.5660 281.5642 13.21827974151213
ONEWEB-0586             
1 54653U 22166M   26014.23385178  .00000029  00000+0  37617-4 0  9998
2 54653  87.9217 274.7092 0001726  73.7450 286.3874 13.21828118151181
ONEWEB-0587             
1 54654U 22166N   26014.24373076 -.00000031  00000+0 -10739-3 0  9994
2 54654  87.9227 274.6662 0001219  82.3101 277.8172 13.21825302151347
ONEWEB-0589             
1 54655U 22166P   26014.23056705  .00000094  00000+0  19661-3 0  9991
2 54655  87.9217 274.7002 0002421  78.2955 281.8450 13.21825768151208
ONEWEB-0590             
1 54656U 22166Q   26014.40650610 -.00000017  00000+0 -72630-4 0  9999
2 54656  87.9221 274.6427 0001662  91.5101 268.6223 13.21825422151210
ONEWEB-0591             
1 54657U 22166R   26014.11536398  .00000041  00000+0  66952-4 0  9999
2 54657  87.9220 274.7239 0001674  79.2783 280.8539 13.21828246151206
ONEWEB-0592             
1 54658U 22166S   26014.19434422 -.00000094  00000+0 -25924-3 0  9996
2 54658  87.9229 274.6740 0001659  77.9517 282.1803 13.21827399151099
ONEWEB-0593             
1 54659U 22166T   26014.21740012  .00000047  00000+0  83026-4 0  9999
2 54659  87.9218 274.6933 0001693  71.7776 288.3542 13.21825786151208
ONEWEB-0594             
1 54660U 22166U   26014.23713369  .00000015  00000+0  46292-5 0  9998
2 54660  87.9219 274.7073 0001507  76.4332 283.6970 13.21828555151223
ONEWEB-0595             
1 54661U 22166V   26014.21409910 -.00000181  00000+0 -47048-3 0  9995
2 54661  87.9216 274.6844 0001429  79.3814 280.7481 13.21826382151193
ONEWEB-0596             
1 54662U 22166W   26014.49055814  .00000040  00000+0  65501-4 0  9993
2 54662  87.9217 274.6467 0001580  79.5453 280.5859 13.21828238151239
ONEWEB-0597             
1 54663U 22166X   26014.24537942 -.00000024  00000+0 -90161-4 0  9998
2 54663  87.9217 274.7005 0001735  76.3651 283.7676 13.21825476151206
